{"type": "FeatureCollection", "features": [ {"type": "Feature", "properties": {"norad_id": 45344, "name": "BEIDOU-3 G2 (C60)", "group": "gnss", "lat": -2.419347714038243, "lon": -30.370724748830984, "alt_km": 35768.273857491295, "timestamp": "2025-12-17T10:52:54.596718+00:00", "meta": {"OBJECT_NAME": "BEIDOU-3 G2 (C60)", "OBJECT_ID": "2020-017A", "EPOCH": "2025-12-16T20:35:05.205696", "MEAN_MOTION": 1.00273145, "ECCENTRICITY": 0.00043557, "INCLINATION": 2.5049, "RA_OF_ASC_NODE": 43.9477, "ARG_OF_PERICENTER": 271.641, "MEAN_ANOMALY": 158.9771, "EPHEMERIS_TYPE": 0, "CLASSIFICATION_TYPE": "U", "NORAD_CAT_ID": 45344, "ELEMENT_SET_NO": 999, "REV_AT_EPOCH": 2143, "BSTAR": 0, "MEAN_MOTION_DOT": -1.19e-06, "MEAN_MOTION_DDOT": 0}, "tle": {"line1": "1 45344U 20017A   25350.85769914 -.00000119  00000+0  00000+0 0  9994", "line2": "2 45344   2.5049  43.9477 0004355 271.6410 158.9771  1.00273145 21435"}}, "geometry": {"type": "Point", "coordinates": [-30.370724748830984, -2.419347714038243]}}, {"type": "Feature", "properties": {"norad_id": 45358, "name": "COSMOS 2545 (760)", "group": "gnss", "lat": -44.84216270937341, "lon": 167.1631025293295, "alt_km": 19106.947261364563, "timestamp": "2025-12-17T10:52:54.596731+00:00", "meta": {"OBJECT_NAME": "COSMOS 2545 (760)", "OBJECT_ID": "2020-018A", "EPOCH": "2025-12-16T05:06:52.711776", "MEAN_MOTION": 2.13102549, "ECCENTRICITY": 0.00116565, "INCLINATION": 64.4672, "RA_OF_ASC_NODE": 318.8472, "ARG_OF_PERICENTER": 249.26, "MEAN_ANOMALY": 110.6088, "EPHEMERIS_TYPE": 0, "CLASSIFICATION_TYPE": "U", "NORAD_CAT_ID": 45358, "ELEMENT_SET_NO": 999, "REV_AT_EPOCH": 4476, "BSTAR": 0, "MEAN_MOTION_DOT": -7e-07, "MEAN_MOTION_DDOT": 0}, "tle": {"line1": "1 45358U 20018A   25350.21311009 -.00000070  00000+0  00000+0 0  9994", "line2": "2 45358  64.4672 318.8472 0011656 249.2600 110.6088  2.13102549 44763"}}, "geometry": {"type": "Point", "coordinates": [167.1631025293295, -44.84216270937341]}}, {"type": "Feature", "properties": {"norad_id": 45807, "name": "BEIDOU-3 G3 (C61)", "group": "gnss", "lat": -1.8298374112229712, "lon": 0.12277453339399846, "alt_km": 35760.46218612743, "timestamp": "2025-12-17T10:52:54.596745+00:00", "meta": {"OBJECT_NAME": "BEIDOU-3 G3 (C61)", "OBJECT_ID": "2020-040A", "EPOCH": "2025-12-16T21:10:01.572096", "MEAN_MOTION": 1.00272252, "ECCENTRICITY": 0.00063755, "INCLINATION": 2.0011, "RA_OF_ASC_NODE": 66.6197, "ARG_OF_PERICENTER": 308.7522, "MEAN_ANOMALY": 138.4817, "EPHEMERIS_TYPE": 0, "CLASSIFICATION_TYPE": "U", "NORAD_CAT_ID": 45807, "ELEMENT_SET_NO": 999, "REV_AT_EPOCH": 2024, "BSTAR": 0, "MEAN_MOTION_DOT": -3.31e-06, "MEAN_MOTION_DDOT": 0}, "tle": {"line1": "1 45807U 20040A   25350.88196264 -.00000331  00000+0  00000+0 0  9995", "line2": "2 45807   2.0011  66.6197 0006375 308.7522 138.4817  1.00272252 20244"}}, "geometry": {"type": "Point", "coordinates": [0.12277453339399846, -1.8298374112229712]}}, {"type": "Feature", "properties": {"norad_id": 45854, "name": "GPS BIII-3  (PRN 23)", "group": "gnss", "lat": 26.770623649129718, "lon": -163.4437251987262, "alt_km": 20089.245520020264, "timestamp": "2025-12-17T10:52:54.596757+00:00", "meta": {"OBJECT_NAME": "GPS BIII-3  (PRN 23)", "OBJECT_ID": "2020-041A", "EPOCH": "2025-12-15T05:19:26.228640", "MEAN_MOTION": 2.00562018, "ECCENTRICITY": 0.00605633, "INCLINATION": 56.5487, "RA_OF_ASC_NODE": 36.0887, "ARG_OF_PERICENTER": 203.5004, "MEAN_ANOMALY": 133.1292, "EPHEMERIS_TYPE": 0, "CLASSIFICATION_TYPE": "U", "NORAD_CAT_ID": 45854, "ELEMENT_SET_NO": 999, "REV_AT_EPOCH": 4034, "BSTAR": 0, "MEAN_MOTION_DOT": -9e-07, "MEAN_MOTION_DDOT": 0}, "tle": {"line1": "1 45854U 20041A   25349.22183135 -.00000090  00000+0  00000+0 0  9999", "line2": "2 45854  56.5487  36.0887 0060563 203.5004 133.1292  2.00562018 40345"}}, "geometry": {"type": "Point", "coordinates": [-163.4437251987262, 26.770623649129718]}}, {"type": "Feature", "properties": {"norad_id": 46114, "name": "GALAXY 30 (WAAS/PRN 135)", "group": "gnss", "lat": 0.03309351183620865, "lon": 124.53310175753842, "alt_km": 35792.50794447768, "timestamp": "2025-12-17T10:52:54.596771+00:00", "meta": {"OBJECT_NAME": "GALAXY 30 (WAAS/PRN 135)", "OBJECT_ID": "2020-056C", "EPOCH": "2025-12-16T10:32:38.625216", "MEAN_MOTION": 1.00271809, "ECCENTRICITY": 0.00020504, "INCLINATION": 0.0174, "RA_OF_ASC_NODE": 8.9673, "ARG_OF_PERICENTER": 254.0657, "MEAN_ANOMALY": 215.4609, "EPHEMERIS_TYPE": 0, "CLASSIFICATION_TYPE": "U", "NORAD_CAT_ID": 46114, "ELEMENT_SET_NO": 999, "REV_AT_EPOCH": 1946, "BSTAR": 0, "MEAN_MOTION_DOT": 6e-07, "MEAN_MOTION_DDOT": 0}, "tle": {"line1": "1 46114U 20056C   25350.43933594  .00000060  00000+0  00000+0 0  9998", "line2": "2 46114   0.0174   8.9673 0002050 254.0657 215.4609  1.00271809 19464"}}, "geometry": {"type": "Point", "coordinates": [124.53310175753842, 0.03309351183620865]}}, {"type": "Feature", "properties": {"norad_id": 46805, "name": "COSMOS 2547 (705K)", "group": "gnss", "lat": 64.42387063346521, "lon": -78.16953969036044, "alt_km": 19135.600664676305, "timestamp": "2025-12-17T10:52:54.596783+00:00", "meta": {"OBJECT_NAME": "COSMOS 2547 (705K)", "OBJECT_ID": "2020-075A", "EPOCH": "2025-12-15T22:22:03.065088", "MEAN_MOTION": 2.13100081, "ECCENTRICITY": 0.00062311, "INCLINATION": 64.5961, "RA_OF_ASC_NODE": 198.5898, "ARG_OF_PERICENTER": 228.6409, "MEAN_ANOMALY": 131.3861, "EPHEMERIS_TYPE": 0, "CLASSIFICATION_TYPE": "U", "NORAD_CAT_ID": 46805, "ELEMENT_SET_NO": 999, "REV_AT_EPOCH": 4000, "BSTAR": 0, "MEAN_MOTION_DOT": 1.08e-06, "MEAN_MOTION_DDOT": 0}, "tle": {"line1": "1 46805U 20075A   25349.93197992  .00000108  00000+0  00000+0 0  9996", "line2": "2 46805  64.5961 198.5898 0006231 228.6409 131.3861  2.13100081 40000"}}, "geometry": {"type": "Point", "coordinates": [-78.16953969036044, 64.42387063346521]}}, {"type": "Feature", "properties": {"norad_id": 46826, "name": "GPS BIII-4  (PRN 14)", "group": "gnss", "lat": 45.47103498638157, "lon": -9.424600488427728, "alt_km": 20161.107404333245, "timestamp": "2025-12-17T10:52:54.596794+00:00", "meta": {"OBJECT_NAME": "GPS BIII-4  (PRN 14)", "OBJECT_ID": "2020-078A", "EPOCH": "2025-12-16T01:06:13.902336", "MEAN_MOTION": 2.00566891, "ECCENTRICITY": 0.00647559, "INCLINATION": 54.0145, "RA_OF_ASC_NODE": 218.2068, "ARG_OF_PERICENTER": 203.3837, "MEAN_ANOMALY": 339.3927, "EPHEMERIS_TYPE": 0, "CLASSIFICATION_TYPE": "U", "NORAD_CAT_ID": 46826, "ELEMENT_SET_NO": 999, "REV_AT_EPOCH": 3783, "BSTAR": 0, "MEAN_MOTION_DOT": 6.7e-07, "MEAN_MOTION_DDOT": 0}, "tle": {"line1": "1 46826U 20078A   25350.04599424  .00000067  00000+0  00000+0 0  9996", "line2": "2 46826  54.0145 218.2068 0064755 203.3837 339.3927  2.00566891 37831"}}, "geometry": {"type": "Point", "coordinates": [-9.424600488427728, 45.47103498638157]}}, {"type": "Feature", "properties": {"norad_id": 48859, "name": "GPS BIII-5  (PRN 11)", "group": "gnss", "lat": -42.689189964485145, "lon": -60.04937731628546, "alt_km": 20166.213796436583, "timestamp": "2025-12-17T10:52:54.596806+00:00", "meta": {"OBJECT_NAME": "GPS BIII-5  (PRN 11)", "OBJECT_ID": "2021-054A", "EPOCH": "2025-12-08T04:14:32.423424", "MEAN_MOTION": 2.00553627, "ECCENTRICITY": 0.0024678, "INCLINATION": 55.2581, "RA_OF_ASC_NODE": 340.1367, "ARG_OF_PERICENTER": 233.3994, "MEAN_ANOMALY": 212.8593, "EPHEMERIS_TYPE": 0, "CLASSIFICATION_TYPE": "U", "NORAD_CAT_ID": 48859, "ELEMENT_SET_NO": 999, "REV_AT_EPOCH": 3292, "BSTAR": 0, "MEAN_MOTION_DOT": -8.6e-07, "MEAN_MOTION_DDOT": 0}, "tle": {"line1": "1 48859U 21054A   25342.17676416 -.00000086  00000+0  00000+0 0  9993", "line2": "2 48859  55.2581 340.1367 0024678 233.3994 212.8593  2.00553627 32922"}}, "geometry": {"type": "Point", "coordinates": [-60.04937731628546, -42.689189964485145]}}, {"type": "Feature", "properties": {"norad_id": 49336, "name": "QZS-1R (QZSS/PRN 196)", "group": "gnss", "lat": -28.991463513911288, "lon": 35.199027865055754, "alt_km": 33125.48184835759, "timestamp": "2025-12-17T10:52:54.596817+00:00", "meta": {"OBJECT_NAME": "QZS-1R (QZSS/PRN 196)", "OBJECT_ID": "2021-096A", "EPOCH": "2025-12-16T14:02:25.911168", "MEAN_MOTION": 1.00256555, "ECCENTRICITY": 0.075615, "INCLINATION": 37.0853, "RA_OF_ASC_NODE": 82.3023, "ARG_OF_PERICENTER": 271.3992, "MEAN_ANOMALY": 76.9264, "EPHEMERIS_TYPE": 0, "CLASSIFICATION_TYPE": "U", "NORAD_CAT_ID": 49336, "ELEMENT_SET_NO": 999, "REV_AT_EPOCH": 1517, "BSTAR": 0, "MEAN_MOTION_DOT": -2.79e-06, "MEAN_MOTION_DDOT": 0}, "tle": {"line1": "1 49336U 21096A   25350.58502212 -.00000279  00000+0  00000+0 0  9990", "line2": "2 49336  37.0853  82.3023 0756150 271.3992  76.9264  1.00256555 15175"}}, "geometry": {"type": "Point", "coordinates": [35.199027865055754, -28.991463513911288]}}, {"type": "Feature", "properties": {"norad_id": 49809, "name": "GSAT0223 (GALILEO 27)", "group": "gnss", "lat": -4.9561928908405495, "lon": 169.78578115180707, "alt_km": 23217.941080772798, "timestamp": "2025-12-17T10:52:54.596832+00:00", "meta": {"OBJECT_NAME": "GSAT0223 (GALILEO 27)", "OBJECT_ID": "2021-116A", "EPOCH": "2025-12-16T06:27:02.542752", "MEAN_MOTION": 1.7047608, "ECCENTRICITY": 0.00044443, "INCLINATION": 57.2186, "RA_OF_ASC_NODE": 346.6172, "ARG_OF_PERICENTER": 253.7199, "MEAN_ANOMALY": 285.1597, "EPHEMERIS_TYPE": 0, "CLASSIFICATION_TYPE": "U", "NORAD_CAT_ID": 49809, "ELEMENT_SET_NO": 999, "REV_AT_EPOCH": 2506, "BSTAR": 0, "MEAN_MOTION_DOT": -8.1e-07, "MEAN_MOTION_DDOT": 0}, "tle": {"line1": "1 49809U 21116A   25350.26877943 -.00000081  00000+0  00000+0 0  9990", "line2": "2 49809  57.2186 346.6172 0004444 253.7199 285.1597  1.70476080 25065"}}, "geometry": {"type": "Point", "coordinates": [169.78578115180707, -4.9561928908405495]}}]}